start=new Date('2022-09-09T00:00:00.000Z').valueOf();
sats=[{"MEAN_ELEMENT_THEORY":"SGP4","REF_FRAME":"TEME","TLE_LINE1":"1 46753U 20074Q   22251.82342650  .00003350  00000-0  24372-3 0  9992","PERIAPSIS":"546.133","EPOCH":"2022-09-08T19:45:44.049600","MEAN_ANOMALY":"292.7141","OBJECT_ID":"2020-074Q","NORAD_CAT_ID":"46753","TLE_LINE2":"2 46753  53.0562 298.1885 0001585  67.4016 292.7141 15.06394553104071","PERIOD":"95.592","APOAPSIS":"548.328","MEAN_MOTION_DDOT":"0.0000000000000","DECAY_DATE":null,"COUNTRY_CODE":"US","REV_AT_EPOCH":"10407","CLASSIFICATION_TYPE":"U","CENTER_NAME":"EARTH","FILE":"3564431","RCS_SIZE":"LARGE","SEMIMAJOR_AXIS":"6925.365","RA_OF_ASC_NODE":"298.1885","INCLINATION":"53.0562","ELEMENT_SET_NO":"999","BSTAR":"0.00024372000000","EPHEMERIS_TYPE":"0","TIME_SYSTEM":"UTC","LAUNCH_DATE":"2020-10-24","ECCENTRICITY":"0.00015850","GP_ID":"212092501","MEAN_MOTION_DOT":"0.00003350","MEAN_MOTION":"15.06394553","SITE":"AFETR","OBJECT_TYPE":"PAYLOAD","OBJECT_NAME":"STARLINK-1922","ARG_OF_PERICENTER":"67.4016"},{"ECCENTRICITY":"0.00012240","TIME_SYSTEM":"UTC","LAUNCH_DATE":"2020-10-24","ARG_OF_PERICENTER":"99.2469","SITE":"AFETR","OBJECT_TYPE":"PAYLOAD","MEAN_MOTION":"15.06383005","OBJECT_NAME":"STARLINK-1923","MEAN_MOTION_DOT":"0.00002395","GP_ID":"212048793","FILE":"3563723","RCS_SIZE":"LARGE","CENTER_NAME":"EARTH","CLASSIFICATION_TYPE":"U","INCLINATION":"53.0552","RA_OF_ASC_NODE":"299.9316","BSTAR":"0.00017967000000","ELEMENT_SET_NO":"999","EPHEMERIS_TYPE":"0","SEMIMAJOR_AXIS":"6925.401","TLE_LINE2":"2 46754  53.0552 299.9316 0001224  99.2469 260.8658 15.06383005104017","NORAD_CAT_ID":"46754","APOAPSIS":"548.113","PERIOD":"95.593","OBJECT_ID":"2020-074R","MEAN_ANOMALY":"260.8658","COUNTRY_CODE":"US","REV_AT_EPOCH":"10401","MEAN_MOTION_DDOT":"0.0000000000000","DECAY_DATE":null,"MEAN_ELEMENT_THEORY":"SGP4","PERIAPSIS":"546.418","TLE_LINE1":"1 46754U 20074R   22251.43272228  .00002395  00000-0  17967-3 0  9993","EPOCH":"2022-09-08T10:23:07.204992","REF_FRAME":"TEME"},{"MEAN_ELEMENT_THEORY":"SGP4","EPOCH":"2022-09-08T10:30:25.761024","TLE_LINE1":"1 46755U 20074S   22251.43779816  .00006508  00000-0  45555-3 0  9993","PERIAPSIS":"546.031","REF_FRAME":"TEME","NORAD_CAT_ID":"46755","TLE_LINE2":"2 46755  53.0544 304.9095 0001752  54.3967 305.7185 15.06389803103948","PERIOD":"95.593","APOAPSIS":"548.458","MEAN_ANOMALY":"305.7185","OBJECT_ID":"2020-074S","COUNTRY_CODE":"US","REV_AT_EPOCH":"10394","DECAY_DATE":null,"MEAN_MOTION_DDOT":"0.0000000000000","FILE":"3563723","RCS_SIZE":"LARGE","CLASSIFICATION_TYPE":"U","CENTER_NAME":"EARTH","RA_OF_ASC_NODE":"304.9095","INCLINATION":"53.0544","EPHEMERIS_TYPE":"0","ELEMENT_SET_NO":"999","BSTAR":"0.00045555000000","SEMIMAJOR_AXIS":"6925.380","ECCENTRICITY":"0.00017520","TIME_SYSTEM":"UTC","LAUNCH_DATE":"2020-10-24","SITE":"AFETR","ARG_OF_PERICENTER":"54.3967","OBJECT_TYPE":"PAYLOAD","OBJECT_NAME":"STARLINK-1924","MEAN_MOTION":"15.06389803","MEAN_MOTION_DOT":"0.00006508","GP_ID":"212049544"},{"MEAN_ELEMENT_THEORY":"SGP4","TLE_LINE1":"1 46756U 20074T   22251.53368959  .00012147  00000-0  83298-3 0  9999","PERIAPSIS":"545.980","EPOCH":"2022-09-08T12:48:30.780576","REF_FRAME":"TEME","PERIOD":"95.592","APOAPSIS":"548.462","NORAD_CAT_ID":"46756","TLE_LINE2":"2 46756  53.0536 304.8794 0001792  65.7327 294.3849 15.06397545103970","MEAN_ANOMALY":"294.3849","OBJECT_ID":"2020-074T","REV_AT_EPOCH":"10397","COUNTRY_CODE":"US","MEAN_MOTION_DDOT":"0.0000000000000","DECAY_DATE":null,"RCS_SIZE":"LARGE","FILE":"3564155","CLASSIFICATION_TYPE":"U","CENTER_NAME":"EARTH","EPHEMERIS_TYPE":"0","ELEMENT_SET_NO":"999","BSTAR":"0.00083298000000","RA_OF_ASC_NODE":"304.8794","INCLINATION":"53.0536","SEMIMAJOR_AXIS":"6925.356","ECCENTRICITY":"0.00017920","LAUNCH_DATE":"2020-10-24","TIME_SYSTEM":"UTC","MEAN_MOTION":"15.06397545","SITE":"AFETR","OBJECT_TYPE":"PAYLOAD","OBJECT_NAME":"STARLINK-1925","ARG_OF_PERICENTER":"65.7327","GP_ID":"212063549","MEAN_MOTION_DOT":"0.00012147"},{"REF_FRAME":"TEME","TLE_LINE1":"1 46757U 20074U   22251.88014125  .00006965  00000-0  48608-3 0  9998","PERIAPSIS":"546.084","EPOCH":"2022-09-08T21:07:24.204000","MEAN_ELEMENT_THEORY":"SGP4","DECAY_DATE":null,"MEAN_MOTION_DDOT":"0.0000000000000","REV_AT_EPOCH":"10400","COUNTRY_CODE":"US","MEAN_ANOMALY":"309.0555","OBJECT_ID":"2020-074U","PERIOD":"95.592","APOAPSIS":"548.361","NORAD_CAT_ID":"46757","TLE_LINE2":"2 46757  53.0535 303.1644 0001644  51.0580 309.0555 15.06397040104004","SEMIMAJOR_AXIS":"6925.358","ELEMENT_SET_NO":"999","EPHEMERIS_TYPE":"0","BSTAR":"0.00048608000000","RA_OF_ASC_NODE":"303.1644","INCLINATION":"53.0535","CLASSIFICATION_TYPE":"U","CENTER_NAME":"EARTH","RCS_SIZE":"LARGE","FILE":"3564431","MEAN_MOTION_DOT":"0.00006965","GP_ID":"212092001","SITE":"AFETR","MEAN_MOTION":"15.06397040","OBJECT_TYPE":"PAYLOAD","OBJECT_NAME":"STARLINK-1926","ARG_OF_PERICENTER":"51.0580","LAUNCH_DATE":"2020-10-24","TIME_SYSTEM":"UTC","ECCENTRICITY":"0.00016440"},{"MEAN_ELEMENT_THEORY":"SGP4","TLE_LINE1":"1 46758U 20074V   22251.88380475  .00006487  00000-0  45406-3 0  9995","PERIAPSIS":"546.160","EPOCH":"2022-09-08T21:12:40.730400","REF_FRAME":"TEME","PERIOD":"95.593","APOAPSIS":"548.314","NORAD_CAT_ID":"46758","TLE_LINE2":"2 46758  53.0535 302.9032 0001555  63.6417 296.4731 15.06392445104012","MEAN_ANOMALY":"296.4731","OBJECT_ID":"2020-074V","REV_AT_EPOCH":"10401","COUNTRY_CODE":"US","MEAN_MOTION_DDOT":"0.0000000000000","DECAY_DATE":null,"RCS_SIZE":"LARGE","FILE":"3564431","CLASSIFICATION_TYPE":"U","CENTER_NAME":"EARTH","ELEMENT_SET_NO":"999","EPHEMERIS_TYPE":"0","BSTAR":"0.00045406000000","RA_OF_ASC_NODE":"302.9032","INCLINATION":"53.0535","SEMIMAJOR_AXIS":"6925.372","ECCENTRICITY":"0.00015550","LAUNCH_DATE":"2020-10-24","TIME_SYSTEM":"UTC","OBJECT_TYPE":"PAYLOAD","SITE":"AFETR","OBJECT_NAME":"STARLINK-1928","MEAN_MOTION":"15.06392445","ARG_OF_PERICENTER":"63.6417","GP_ID":"212090991","MEAN_MOTION_DOT":"0.00006487"},{"OBJECT_NAME":"STARLINK-1833","SITE":"AFETR","OBJECT_TYPE":"PAYLOAD","ARG_OF_PERICENTER":"68.4468","MEAN_MOTION":"15.06415566","GP_ID":"212091501","MEAN_MOTION_DOT":"0.00011831","ECCENTRICITY":"0.00012350","TIME_SYSTEM":"UTC","LAUNCH_DATE":"2020-10-24","INCLINATION":"53.0541","RA_OF_ASC_NODE":"312.9489","EPHEMERIS_TYPE":"0","BSTAR":"0.00081147000000","ELEMENT_SET_NO":"999","SEMIMAJOR_AXIS":"6925.301","FILE":"3564431","RCS_SIZE":"LARGE","CENTER_NAME":"EARTH","CLASSIFICATION_TYPE":"U","COUNTRY_CODE":"US","REV_AT_EPOCH":"10386","MEAN_MOTION_DDOT":"0.0000000000000","DECAY_DATE":null,"TLE_LINE2":"2 46759  53.0541 312.9489 0001235  68.4468 291.6653 15.06415566103863","NORAD_CAT_ID":"46759","APOAPSIS":"548.021","PERIOD":"95.591","MEAN_ANOMALY":"291.6653","OBJECT_ID":"2020-074W","TLE_LINE1":"1 46759U 20074W   22251.87918385  .00011831  00000-0  81147-3 0  9993","PERIAPSIS":"546.311","EPOCH":"2022-09-08T21:06:01.484640","REF_FRAME":"TEME","MEAN_ELEMENT_THEORY":"SGP4"},{"ECCENTRICITY":"0.00014470","TIME_SYSTEM":"UTC","LAUNCH_DATE":"2020-10-24","ARG_OF_PERICENTER":"70.9905","SITE":"AFETR","OBJECT_TYPE":"PAYLOAD","OBJECT_NAME":"STARLINK-1896","MEAN_MOTION":"15.06379362","GP_ID":"212091751","MEAN_MOTION_DOT":"0.00004182","FILE":"3564431","RCS_SIZE":"LARGE","CLASSIFICATION_TYPE":"U","CENTER_NAME":"EARTH","RA_OF_ASC_NODE":"314.6850","INCLINATION":"53.0550","ELEMENT_SET_NO":"999","EPHEMERIS_TYPE":"0","BSTAR":"0.00029964000000","SEMIMAJOR_AXIS":"6925.412","NORAD_CAT_ID":"46760","TLE_LINE2":"2 46760  53.0550 314.6850 0001447  70.9905 289.1240 15.06379362103817","PERIOD":"95.593","APOAPSIS":"548.279","OBJECT_ID":"2020-074X","MEAN_ANOMALY":"289.1240","COUNTRY_CODE":"US","REV_AT_EPOCH":"10381","DECAY_DATE":null,"MEAN_MOTION_DDOT":"0.0000000000000","MEAN_ELEMENT_THEORY":"SGP4","PERIAPSIS":"546.275","TLE_LINE1":"1 46760U 20074X   22251.49216477  .00004182  00000-0  29964-3 0  9996","EPOCH":"2022-09-08T11:48:43.036128","REF_FRAME":"TEME"},{"DECAY_DATE":null,"MEAN_MOTION_DDOT":"0.0000000000000","COUNTRY_CODE":"US","REV_AT_EPOCH":"10466","MEAN_ANOMALY":"314.0556","OBJECT_ID":"2020-074AA","TLE_LINE2":"2 46763  53.0509 255.0015 0001505  46.0578 314.0556 15.54280257104669","NORAD_CAT_ID":"46763","APOAPSIS":"405.268","PERIOD":"92.647","REF_FRAME":"TEME","PERIAPSIS":"403.227","TLE_LINE1":"1 46763U 20074AA  22251.44410037  .00464502  00000-0  65928-2 0  9997","EPOCH":"2022-09-08T10:39:30.271968","MEAN_ELEMENT_THEORY":"SGP4","MEAN_MOTION_DOT":"0.00464502","GP_ID":"212061385","SITE":"AFETR","MEAN_MOTION":"15.54280257","OBJECT_TYPE":"PAYLOAD","ARG_OF_PERICENTER":"46.0578","OBJECT_NAME":"STARLINK-1902","TIME_SYSTEM":"UTC","LAUNCH_DATE":"2020-10-24","ECCENTRICITY":"0.00015050","SEMIMAJOR_AXIS":"6782.383","INCLINATION":"53.0509","RA_OF_ASC_NODE":"255.0015","EPHEMERIS_TYPE":"0","BSTAR":"0.00659280000000","ELEMENT_SET_NO":"999","CENTER_NAME":"EARTH","CLASSIFICATION_TYPE":"U","FILE":"3564060","RCS_SIZE":"LARGE"},{"MEAN_ELEMENT_THEORY":"SGP4","REF_FRAME":"TEME","EPOCH":"2022-09-08T11:38:05.604576","TLE_LINE1":"1 46764U 20074AB  22251.48478709  .00007317  00000-0  50969-3 0  9999","PERIAPSIS":"546.303","MEAN_ANOMALY":"302.2435","OBJECT_ID":"2020-074AB","PERIOD":"95.593","APOAPSIS":"548.161","NORAD_CAT_ID":"46764","TLE_LINE2":"2 46764  53.0549 314.7125 0001341  57.8684 302.2435 15.06393977103817","DECAY_DATE":null,"MEAN_MOTION_DDOT":"0.0000000000000","REV_AT_EPOCH":"10381","COUNTRY_CODE":"US","CLASSIFICATION_TYPE":"U","CENTER_NAME":"EARTH","RCS_SIZE":"LARGE","FILE":"3564431","SEMIMAJOR_AXIS":"6925.367","ELEMENT_SET_NO":"999","EPHEMERIS_TYPE":"0","BSTAR":"0.00050969000000","RA_OF_ASC_NODE":"314.7125","INCLINATION":"53.0549","LAUNCH_DATE":"2020-10-24","TIME_SYSTEM":"UTC","ECCENTRICITY":"0.00013410","GP_ID":"212091492","MEAN_MOTION_DOT":"0.00007317","SITE":"AFETR","OBJECT_TYPE":"PAYLOAD","OBJECT_NAME":"STARLINK-1903","MEAN_MOTION":"15.06393977","ARG_OF_PERICENTER":"57.8684"}];
